#aV2011 10  1  0  0   .00000000      96 DD+AD WGS84 FIT  NGA
## 1655 518400.00000000   900.00000000 55835  .0000000000000
+   32     1  2  3  4  5  6  7  8  9 10 11 12 13 14 15 16 17
+         18 19 20 21 22 23 24 25 26 27 28 29 30 31 32  0  0
+          0  0  0  0  0  0  0  0  0  0  0  0  0  0  0  0  0
+          0  0  0  0  0  0  0  0  0  0  0  0  0  0  0  0  0
+          0  0  0  0  0  0  0  0  0  0  0  0  0  0  0  0  0
++         0  0  0  0  0  0  0  0  0  0  0  0  0  0  0  0  0
++         0  0  0  0  0  0  0  0  0  0  0  0  0  0  0  0  0
++         0  0  0  0  0  0  0  0  0  0  0  0  0  0  0  0  0
++         0  0  0  0  0  0  0  0  0  0  0  0  0  0  0  0  0
++         0  0  0  0  0  0  0  0  0  0  0  0  0  0  0  0  0
%c cc cc ccc ccc cccc cccc cccc cccc ccccc ccccc ccccc ccccc
%c cc cc ccc ccc cccc cccc cccc cccc ccccc ccccc ccccc ccccc
%f  0.0000000  0.000000000  0.00000000000  0.000000000000000
%f  0.0000000  0.000000000  0.00000000000  0.000000000000000
%i    0    0    0    0      0      0      0      0         0
%i    0    0    0    0      0      0      0      0         0
/*      NGA, ST. LOUIS,MO.                                  
/*   EPHEMERIS COMPUTED FROM  3 DAYS OF DATA                
/* CCCCCCCCCCCCCCCCCCCCCCCCCCCCCCCCCCCCCCCCCCCCCCCCCCCCCCCCC
/* CCCCCCCCCCCCCCCCCCCCCCCCCCCCCCCCCCCCCCCCCCCCCCCCCCCCCCCCC
*  2011 10  1 19  0   .00000000                                                 
P  1  16065.699534    513.126816  21132.697869     -4.892420                    
V  1   9159.633628  25259.890266  -7572.447738      -.015647                    
P  2 -14431.684980 -21306.261844  -7463.930262    358.782148                    
V  2   -844.099093  -9872.520568  29028.480229       .018153                    
P  3  19275.254729  11610.719322 -14784.799832    775.615121                    
V  3 -18042.893403   1915.051160 -22412.504284       .050054                    
P  4  -5226.814375 -25195.080685   5587.916357    247.755141                    
V  4   6148.485906   5653.785356  30369.147481       .112743                    
P  5 -11060.194832 -10760.409765 -21626.753328   -225.889451                    
V  5  17447.103926 -21210.275308   1747.939716      -.051977                    
P  6  15251.822280  13938.964234 -16688.075048    -58.239789                    
V  6 -21533.886017   -106.291411 -19357.540174       .080451                    
P  7   9144.397303 -14603.776163 -20129.612362     29.536951                    
V  7   9866.782015  23665.749936 -12913.754647       .019328                    
P  8   3456.783745 -21779.305010 -14318.190708       .006769                    
V  8   6604.987992  17281.136220 -25171.330655       .000537                    
P  9 -16253.132865  -5192.781224  19799.455071    109.030408                    
V  9  -8854.941795 -24797.987688 -13429.197589       .023223                    
P 10   5081.887222 -21791.838480 -14228.973791    -14.933438                    
V 10  13569.784886 -11934.446281  23873.704687      -.011458                    
P 11  20265.833748   5922.903426  15949.036802   -190.853239                    
V 11   9827.357773  18853.177176 -18725.830825      -.034497                    
P 12 -19967.228444   6879.841687  16007.266685     25.846332                    
V 12  11835.730013 -16634.552446  22089.047520       .023702                    
P 13  20438.534467  -5846.949878 -16112.731622    248.781595                    
V 13  19217.190396   6077.601258  22278.625675      -.018962                    
P 14   -828.060193  14970.344298  22107.743368    174.850242                    
V 14 -26944.148600  -5878.879291   2850.679440       .017554                    
P 15 -26295.758214  -4301.958312   -850.248626   -104.139319                    
V 15   1502.073156  -2885.180899 -31329.789940       .014144                    
P 16  11573.021197   9306.904206 -22008.053808   -200.937314                    
V 16 -18459.997087  20954.548364   -560.007588      -.021693                    
P 17    674.632723 -15368.737883  21807.235788    172.699090                    
V 17  26858.760721   5069.056122   2527.183818      -.015948                    
P 18 -16665.907098  20418.922987    402.147240    160.043804                    
V 18  -3193.032028  -2507.935725 -31332.247929       .018490                    
P 19  25204.323533   8477.012960  -3022.841486   -189.730524                    
V 19  -4268.786950   1550.156701 -31172.639257      -.040197                    
P 20  20176.156190  -8778.456590  14683.542690     53.735183                    
V 20  -9152.262869  16883.927193  22516.391205       .005505                    
P 21  -7271.667494  17856.065648 -17572.581420   -175.114054                    
V 21 -10558.262691 -21148.804665 -17308.397393      -.024705                    
P 22  -6873.969426  22512.568106  12377.118114    144.159294                    
V 22 -12410.671882   9880.407135 -25342.837032      -.001558                    
P 23  25632.741059   -908.079977  -7569.124645    271.458046                    
V 23   9013.159319   3896.330094  29606.999856      -.031289                    
P 24  16695.596299   4395.045052  20297.299518    428.668797                    
V 24   6925.841255  24721.140483 -10754.585621       .059969                    
P 25 -19422.483792  16652.363836   7053.442272     21.332355                    
V 25   3581.704269  -8639.155852  30166.452556       .017872                    
P 26 -20485.530526 -13041.335714 -11803.046020   -175.946931                    
V 26  13799.090028   2047.212242 -27245.125212      -.129883                    
P 27 -17500.711767 -11058.188293  17497.910433    310.836032                    
V 27  -7367.115717 -19449.422931 -20055.091884       .038353                    
P 28  10248.808686 -22232.716011  10500.840122     72.020772                    
V 28   9973.630702  -8025.230426 -28390.279662       .032032                    
P 29 -20428.741567   6852.161744 -15438.310710    244.647268                    
V 29 -18945.488713  -5875.020209  22407.411302       .032553                    
P 30 -11863.111342  23474.555108  -4222.030494     76.741026                    
V 30  -5047.222960   2530.399345  31052.956258      -.071933                    
P 31   7171.342217  25302.736298   2960.695986    149.340091                    
V 31  -3408.530853  -2507.557672  32037.052073       .053740                    
P 32  18147.970670   1121.310898  19470.077263   -338.262690                    
V 32 -15828.353948  18543.239237  14309.541316      -.064189                    
EOF
